NORBY-3
1 61761U 24199AC  26068.93571241  .00041426  00000-0  74433-3 0  9991
2 61761  97.3101 303.6895 0004897 286.8093  73.2621 15.49748624122200
SITRO-AIS-47
1 61773U 24199AQ  26068.93803574  .00045921  00000-0  80819-3 0  9990
2 61773  97.3091 303.1202 0006907 299.6356  60.4208 15.50302586119026
