[{"OBJECT_NAME":"OBJECT AC","OBJECT_ID":"2024-199AC","EPOCH":"2026-03-09T22:27:25.552224","MEAN_MOTION":15.49748624,"ECCENTRICITY":0.00048973,"INCLINATION":97.3101,"RA_OF_ASC_NODE":303.6895,"ARG_OF_PERICENTER":286.8093,"MEAN_ANOMALY":73.2621,"EPHEMERIS_TYPE":0,"CLASSIFICATION_TYPE":"U","NORAD_CAT_ID":61761,"ELEMENT_SET_NO":999,"REV_AT_EPOCH":12220,"BSTAR":0.00074432819,"MEAN_MOTION_DOT":0.00041426,"MEAN_MOTION_DDOT":0},{"OBJECT_NAME":"SITRO-AIS 47","OBJECT_ID":"2024-199AQ","EPOCH":"2026-03-09T22:30:46.287936","MEAN_MOTION":15.50302586,"ECCENTRICITY":0.00069068,"INCLINATION":97.3091,"RA_OF_ASC_NODE":303.1202,"ARG_OF_PERICENTER":299.6356,"MEAN_ANOMALY":60.4208,"EPHEMERIS_TYPE":0,"CLASSIFICATION_TYPE":"U","NORAD_CAT_ID":61773,"ELEMENT_SET_NO":999,"REV_AT_EPOCH":11902,"BSTAR":0.00080819381,"MEAN_MOTION_DOT":0.00045921,"MEAN_MOTION_DDOT":0}]
